SL-14 R/B               
1 16792U 86046B   26031.69432442  .00000575  00000+0  63470-4 0  9995
2 16792  82.4827 115.1396 0022879 354.1195   5.9749 14.85552673120913
SL-14 R/B               
1 16882U 86055B   26031.83559189  .00000670  00000+0  74329-4 0  9990
2 16882  82.5228 161.3011 0020414  94.0083  19.4621 14.85600548113898
AJISAI (EGS)            
1 16908U 86061A   26031.87322913 -.00000103  00000+0 -43123-4 0  9994
2 16908  50.0064 206.5583 0011253 192.2563 320.5655 12.44515338463410
COSMOS 1812             
1 17295U 87003A   26031.63557532  .00198306  12958-4  63985-3 0  9990
2 17295  82.4788 237.4660 0000851  14.7905 345.3393 15.90798072138540
SL-14 R/B               
1 17567U 87024B   26031.67387634  .00000603  00000+0  65887-4 0  9999
2 17567  82.5299 127.5501 0018878  27.7134 332.5084 14.86094142 82633
COSMOS 1833             
1 17589U 87027A   26031.41261955  .00000160  00000+0  11103-3 0  9994
2 17589  70.9201  44.3634 0024736 264.1188  95.7113 14.13053953  5057
SL-16 R/B               
1 17590U 87027B   26031.63539848  .00000200  00000+0  12317-3 0  9992
2 17590  71.0046 354.5750 0005538 203.5519 156.5352 14.17162623 10097
SL-14 R/B               
1 17912U 87038B   26031.85186225  .00000654  00000+0  73215-4 0  9991
2 17912  82.5041 331.5004 0017776 288.2621  71.6661 14.85329189 73765
COSMOS 1844             
1 17973U 87041A   26031.62859243  .00000060  00000+0  56246-4 0  9990
2 17973  70.8983 112.3502 0028609  77.4425 282.9894 14.14535111998343
SL-14 R/B               
1 18153U 87055B   26031.43103641  .00000588  00000+0  64916-4 0  9997
2 18153  82.4983  24.1443 0021788 133.7111 226.5915 14.85581639 64409
COSMOS 1867             
1 18187U 87060A   26031.48442796 -.00000002  00000+0  37046-4 0  9998
2 18187  65.0104  50.8960 0014026 275.8720  84.0766 14.31496581 14610
SL-14 R/B               
1 18749U 88001B   26031.62589583  .00000529  00000+0  58429-4 0  9991
2 18749  82.5104 230.2235 0018212   5.8626 354.2800 14.85482857 36529
