CCSDS_OMM_VERS = 2.0
CREATION_DATE  = 
ORIGINATOR     = 

OBJECT_NAME    = SL-14 R/B
OBJECT_ID      = 1986-046B
CENTER_NAME    = EARTH
REF_FRAME      = TEME
TIME_SYSTEM    = UTC
MEAN_ELEMENT_THEORY = SGP/SGP4

EPOCH          = 2026-01-31T16:39:49.629888
MEAN_MOTION    = 14.85552673
ECCENTRICITY   = .0022879
INCLINATION    = 82.4827
RA_OF_ASC_NODE = 115.1396
ARG_OF_PERICENTER = 354.1195
MEAN_ANOMALY   = 5.9749

EPHEMERIS_TYPE = 0
CLASSIFICATION_TYPE = U
NORAD_CAT_ID   = 16792
ELEMENT_SET_NO = 999
REV_AT_EPOCH   = 12091
BSTAR          = .6347E-4
MEAN_MOTION_DOT = .575E-5
MEAN_MOTION_DDOT = 0

CCSDS_OMM_VERS = 2.0
CREATION_DATE  = 
ORIGINATOR     = 

OBJECT_NAME    = SL-14 R/B
OBJECT_ID      = 1986-055B
CENTER_NAME    = EARTH
REF_FRAME      = TEME
TIME_SYSTEM    = UTC
MEAN_ELEMENT_THEORY = SGP/SGP4

EPOCH          = 2026-01-31T20:03:15.139296
MEAN_MOTION    = 14.85600548
ECCENTRICITY   = .0020414
INCLINATION    = 82.5228
RA_OF_ASC_NODE = 161.3011
ARG_OF_PERICENTER = 94.0083
MEAN_ANOMALY   = 19.4621

EPHEMERIS_TYPE = 0
CLASSIFICATION_TYPE = U
NORAD_CAT_ID   = 16882
ELEMENT_SET_NO = 999
REV_AT_EPOCH   = 11389
BSTAR          = .74329E-4
MEAN_MOTION_DOT = .67E-5
MEAN_MOTION_DDOT = 0

CCSDS_OMM_VERS = 2.0
CREATION_DATE  = 
ORIGINATOR     = 

OBJECT_NAME    = AJISAI (EGS)
OBJECT_ID      = 1986-061A
CENTER_NAME    = EARTH
REF_FRAME      = TEME
TIME_SYSTEM    = UTC
MEAN_ELEMENT_THEORY = SGP/SGP4

EPOCH          = 2026-01-31T20:57:26.996832
MEAN_MOTION    = 12.44515338
ECCENTRICITY   = .0011253
INCLINATION    = 50.0064
RA_OF_ASC_NODE = 206.5583
ARG_OF_PERICENTER = 192.2563
MEAN_ANOMALY   = 320.5655

EPHEMERIS_TYPE = 0
CLASSIFICATION_TYPE = U
NORAD_CAT_ID   = 16908
ELEMENT_SET_NO = 999
REV_AT_EPOCH   = 46341
BSTAR          = -.43123E-4
MEAN_MOTION_DOT = -.103E-5
MEAN_MOTION_DDOT = 0

CCSDS_OMM_VERS = 2.0
CREATION_DATE  = 
ORIGINATOR     = 

OBJECT_NAME    = COSMOS 1812
OBJECT_ID      = 1987-003A
CENTER_NAME    = EARTH
REF_FRAME      = TEME
TIME_SYSTEM    = UTC
MEAN_ELEMENT_THEORY = SGP/SGP4

EPOCH          = 2026-01-31T15:15:13.707648
MEAN_MOTION    = 15.90798072
ECCENTRICITY   = .0000851
INCLINATION    = 82.4788
RA_OF_ASC_NODE = 237.4660
ARG_OF_PERICENTER = 14.7905
MEAN_ANOMALY   = 345.3393

EPHEMERIS_TYPE = 0
CLASSIFICATION_TYPE = U
NORAD_CAT_ID   = 17295
ELEMENT_SET_NO = 999
REV_AT_EPOCH   = 13854
BSTAR          = .63985E-3
MEAN_MOTION_DOT = .198306E-2
MEAN_MOTION_DDOT = .12958E-4

CCSDS_OMM_VERS = 2.0
CREATION_DATE  = 
ORIGINATOR     = 

OBJECT_NAME    = SL-14 R/B
OBJECT_ID      = 1987-024B
CENTER_NAME    = EARTH
REF_FRAME      = TEME
TIME_SYSTEM    = UTC
MEAN_ELEMENT_THEORY = SGP/SGP4

EPOCH          = 2026-01-31T16:10:22.915776
MEAN_MOTION    = 14.86094142
ECCENTRICITY   = .0018878
INCLINATION    = 82.5299
RA_OF_ASC_NODE = 127.5501
ARG_OF_PERICENTER = 27.7134
MEAN_ANOMALY   = 332.5084

EPHEMERIS_TYPE = 0
CLASSIFICATION_TYPE = U
NORAD_CAT_ID   = 17567
ELEMENT_SET_NO = 999
REV_AT_EPOCH   = 8263
BSTAR          = .65887E-4
MEAN_MOTION_DOT = .603E-5
MEAN_MOTION_DDOT = 0

CCSDS_OMM_VERS = 2.0
CREATION_DATE  = 
ORIGINATOR     = 

OBJECT_NAME    = COSMOS 1833
OBJECT_ID      = 1987-027A
CENTER_NAME    = EARTH
REF_FRAME      = TEME
TIME_SYSTEM    = UTC
MEAN_ELEMENT_THEORY = SGP/SGP4

EPOCH          = 2026-01-31T09:54:10.329120
MEAN_MOTION    = 14.13053953
ECCENTRICITY   = .0024736
INCLINATION    = 70.9201
RA_OF_ASC_NODE = 44.3634
ARG_OF_PERICENTER = 264.1188
MEAN_ANOMALY   = 95.7113

EPHEMERIS_TYPE = 0
CLASSIFICATION_TYPE = U
NORAD_CAT_ID   = 17589
ELEMENT_SET_NO = 999
REV_AT_EPOCH   = 505
BSTAR          = .11103E-3
MEAN_MOTION_DOT = .16E-5
MEAN_MOTION_DDOT = 0

CCSDS_OMM_VERS = 2.0
CREATION_DATE  = 
ORIGINATOR     = 

OBJECT_NAME    = SL-16 R/B
OBJECT_ID      = 1987-027B
CENTER_NAME    = EARTH
REF_FRAME      = TEME
TIME_SYSTEM    = UTC
MEAN_ELEMENT_THEORY = SGP/SGP4

EPOCH          = 2026-01-31T15:14:58.428672
MEAN_MOTION    = 14.17162623
ECCENTRICITY   = .0005538
INCLINATION    = 71.0046
RA_OF_ASC_NODE = 354.5750
ARG_OF_PERICENTER = 203.5519
MEAN_ANOMALY   = 156.5352

EPHEMERIS_TYPE = 0
CLASSIFICATION_TYPE = U
NORAD_CAT_ID   = 17590
ELEMENT_SET_NO = 999
REV_AT_EPOCH   = 1009
BSTAR          = .12317E-3
MEAN_MOTION_DOT = .2E-5
MEAN_MOTION_DDOT = 0

CCSDS_OMM_VERS = 2.0
CREATION_DATE  = 
ORIGINATOR     = 

OBJECT_NAME    = SL-14 R/B
OBJECT_ID      = 1987-038B
CENTER_NAME    = EARTH
REF_FRAME      = TEME
TIME_SYSTEM    = UTC
MEAN_ELEMENT_THEORY = SGP/SGP4

EPOCH          = 2026-01-31T20:26:40.898400
MEAN_MOTION    = 14.85329189
ECCENTRICITY   = .0017776
INCLINATION    = 82.5041
RA_OF_ASC_NODE = 331.5004
ARG_OF_PERICENTER = 288.2621
MEAN_ANOMALY   = 71.6661

EPHEMERIS_TYPE = 0
CLASSIFICATION_TYPE = U
NORAD_CAT_ID   = 17912
ELEMENT_SET_NO = 999
REV_AT_EPOCH   = 7376
BSTAR          = .73215E-4
MEAN_MOTION_DOT = .654E-5
MEAN_MOTION_DDOT = 0

CCSDS_OMM_VERS = 2.0
CREATION_DATE  = 
ORIGINATOR     = 

OBJECT_NAME    = COSMOS 1844
OBJECT_ID      = 1987-041A
CENTER_NAME    = EARTH
REF_FRAME      = TEME
TIME_SYSTEM    = UTC
MEAN_ELEMENT_THEORY = SGP/SGP4

EPOCH          = 2026-01-31T15:05:10.385952
MEAN_MOTION    = 14.14535111
ECCENTRICITY   = .0028609
INCLINATION    = 70.8983
RA_OF_ASC_NODE = 112.3502
ARG_OF_PERICENTER = 77.4425
MEAN_ANOMALY   = 282.9894

EPHEMERIS_TYPE = 0
CLASSIFICATION_TYPE = U
NORAD_CAT_ID   = 17973
ELEMENT_SET_NO = 999
REV_AT_EPOCH   = 99834
BSTAR          = .56246E-4
MEAN_MOTION_DOT = .6E-6
MEAN_MOTION_DDOT = 0

CCSDS_OMM_VERS = 2.0
CREATION_DATE  = 
ORIGINATOR     = 

OBJECT_NAME    = SL-14 R/B
OBJECT_ID      = 1987-055B
CENTER_NAME    = EARTH
REF_FRAME      = TEME
TIME_SYSTEM    = UTC
MEAN_ELEMENT_THEORY = SGP/SGP4

EPOCH          = 2026-01-31T10:20:41.545824
MEAN_MOTION    = 14.85581639
ECCENTRICITY   = .0021788
INCLINATION    = 82.4983
RA_OF_ASC_NODE = 24.1443
ARG_OF_PERICENTER = 133.7111
MEAN_ANOMALY   = 226.5915

EPHEMERIS_TYPE = 0
CLASSIFICATION_TYPE = U
NORAD_CAT_ID   = 18153
ELEMENT_SET_NO = 999
REV_AT_EPOCH   = 6440
BSTAR          = .64916E-4
MEAN_MOTION_DOT = .588E-5
MEAN_MOTION_DDOT = 0

CCSDS_OMM_VERS = 2.0
CREATION_DATE  = 
ORIGINATOR     = 

OBJECT_NAME    = COSMOS 1867
OBJECT_ID      = 1987-060A
CENTER_NAME    = EARTH
REF_FRAME      = TEME
TIME_SYSTEM    = UTC
MEAN_ELEMENT_THEORY = SGP/SGP4

EPOCH          = 2026-01-31T11:37:34.575744
MEAN_MOTION    = 14.31496581
ECCENTRICITY   = .0014026
INCLINATION    = 65.0104
RA_OF_ASC_NODE = 50.8960
ARG_OF_PERICENTER = 275.8720
MEAN_ANOMALY   = 84.0766

EPHEMERIS_TYPE = 0
CLASSIFICATION_TYPE = U
NORAD_CAT_ID   = 18187
ELEMENT_SET_NO = 999
REV_AT_EPOCH   = 1461
BSTAR          = .37046E-4
MEAN_MOTION_DOT = -.2E-7
MEAN_MOTION_DDOT = 0

CCSDS_OMM_VERS = 2.0
CREATION_DATE  = 
ORIGINATOR     = 

OBJECT_NAME    = SL-14 R/B
OBJECT_ID      = 1988-001B
CENTER_NAME    = EARTH
REF_FRAME      = TEME
TIME_SYSTEM    = UTC
MEAN_ELEMENT_THEORY = SGP/SGP4

EPOCH          = 2026-01-31T15:01:17.399712
MEAN_MOTION    = 14.85482857
ECCENTRICITY   = .0018212
INCLINATION    = 82.5104
RA_OF_ASC_NODE = 230.2235
ARG_OF_PERICENTER = 5.8626
MEAN_ANOMALY   = 354.2800

EPHEMERIS_TYPE = 0
CLASSIFICATION_TYPE = U
NORAD_CAT_ID   = 18749
ELEMENT_SET_NO = 999
REV_AT_EPOCH   = 3652
BSTAR          = .58429E-4
MEAN_MOTION_DOT = .529E-5
MEAN_MOTION_DDOT = 0

